NORAD_CAT_ID,OBJECT_NAME,OBJECT_TYPE,EPOCH,MEAN_MOTION,ECCENTRICITY,INCLINATION,RA_OF_ASC_NODE,ARG_OF_PERICENTER,MEAN_ANOMALY,BSTAR,MEAN_MOTION_DOT,MEAN_MOTION_DDOT,TLE_LINE0,TLE_LINE1,TLE_LINE2,SEMIMAJOR_AXIS,PERIOD,APOGEE,PERIGEE,DECAYED
55764.0,STARLINK-5499,PAYLOAD,2024-03-01 08:23:57,14.9832947,0.0002752,69.9984,286.207,270.5185,89.5658,7.6746e-07,-8.4e-07,0.0,0 STARLINK-5499,1 55764U 23028Z   24061.34997673 -.00000084  00000-0  76746-6 0  9992,2 55764  69.9984 286.2070 0002752 270.5185  89.5658 14.98329470 55933,6950.195,96.107,573.972,570.147,0.0
55764.0,STARLINK-5499,PAYLOAD,2024-03-01 21:13:02,14.9832734,0.0002901,69.998,284.8602,269.7539,90.3288,2.6564e-05,2.24e-06,0.0,0 STARLINK-5499,1 55764U 23028Z   24061.88405737  .00000224  00000-0  26564-4 0  9992,2 55764  69.9980 284.8602 0002901 269.7539  90.3288 14.98327340 56016,6950.201,96.107,574.082,570.05,0.0
55764.0,STARLINK-5499,PAYLOAD,2024-03-02 14:50:31,14.98329229,0.000301,69.998,283.0081,269.0901,90.9913,2.5618e-05,2.13e-06,0.0,0 STARLINK-5499,1 55764U 23028Z   24062.61841583  .00000213  00000-0  25618-4 0  9994,2 55764  69.9980 283.0081 0003010 269.0901  90.9913 14.98329229 56127,6950.195,96.107,574.152,569.968,0.0
55764.0,STARLINK-5499,PAYLOAD,2024-03-02 19:38:55,14.98333521,0.0002862,69.9978,282.5031,270.3534,89.7297,-6.9704e-05,-9.25e-06,0.0,0 STARLINK-5499,1 55764U 23028Z   24062.81869570 -.00000925  00000-0 -69704-4 0  9998,2 55764  69.9978 282.5031 0002862 270.3534  89.7297 14.98333521 56158,6950.182,96.107,574.036,570.058,0.0
55764.0,STARLINK-5499,PAYLOAD,2024-03-02 21:15:03,14.98302654,0.0002674,69.9978,282.3348,269.0905,90.9947,0.00045179,5.298e-05,0.0,0 STARLINK-5499,1 55764U 23028Z   24062.88546186  .00005298  00000-0  45179-3 0  9995,2 55764  69.9978 282.3348 0002674 269.0905  90.9947 14.98302654 56165,6950.277,96.109,574.001,570.284,0.0
55764.0,STARLINK-5499,PAYLOAD,2024-03-03 14:52:31,14.98331756,0.0002915,69.9974,280.4828,269.1919,90.8906,5.3764e-05,5.49e-06,0.0,0 STARLINK-5499,1 55764U 23028Z   24063.61981275  .00000549  00000-0  53764-4 0  9993,2 55764  69.9974 280.4828 0002915 269.1919  90.8906 14.98331756 56278,6950.187,96.107,574.078,570.026,0.0
55764.0,STARLINK-5499,PAYLOAD,2024-03-03 19:40:55,14.98332563,0.0002907,69.9974,279.9778,269.1109,90.9717,5.9272e-05,6.14e-06,0.0,0 STARLINK-5499,1 55764U 23028Z   24063.82009182  .00000614  00000-0  59272-4 0  9997,2 55764  69.9974 279.9778 0002907 269.1109  90.9717 14.98332563 56309,6950.185,96.107,574.07,570.03,0.0
55764.0,STARLINK-5499,PAYLOAD,2024-03-03 21:17:03,14.98334212,0.0002922,69.9974,279.8095,269.1526,90.9299,6.4068e-05,6.72e-06,0.0,0 STARLINK-5499,1 55764U 23028Z   24063.88685082  .00000672  00000-0  64068-4 0  9995,2 55764  69.9974 279.8095 0002922 269.1526  90.9299 14.98334212 56319,6950.18,96.107,574.076,570.014,0.0
55764.0,STARLINK-5499,PAYLOAD,2024-03-04 14:54:32,14.98335319,0.0002868,69.9975,277.9582,272.0065,88.0766,7.026e-05,7.46e-06,0.0,0 STARLINK-5499,1 55764U 23028Z   24064.62120756  .00000746  00000-0  70260-4 0  9993,2 55764  69.9975 277.9582 0002868 272.0065  88.0766 14.98335319 56428,6950.176,96.107,574.035,570.048,0.0
55764.0,STARLINK-5499,PAYLOAD,2024-03-04 19:42:56,14.98339838,0.0002306,69.9978,277.4529,265.8553,94.2343,3.6569e-06,-4.9e-07,0.0,0 STARLINK-5499,1 55764U 23028Z   24064.82148614 -.00000049  00000-0  36569-5 0  9990,2 55764  69.9978 277.4529 0002306 265.8553  94.2343 14.98339838 56459,6950.162,96.106,573.63,570.425,0.0
55764.0,STARLINK-5499,PAYLOAD,2024-03-04 22:55:11,14.98367093,0.000276,69.9977,277.1162,276.0439,84.0406,-0.00047883,-5.807e-05,0.0,0 STARLINK-5499,1 55764U 23028Z   24064.95499981 -.00005807  00000-0 -47883-3 0  9997,2 55764  69.9977 277.1162 0002760 276.0439  84.0406 14.98367093 56472,6950.078,96.105,573.861,570.025,0.0
55764.0,STARLINK-5499,PAYLOAD,2024-03-05 00:31:19,14.98368832,0.0002761,69.9977,276.9479,275.7061,84.3784,-0.00048703,-5.905e-05,0.0,0 STARLINK-5499,1 55764U 23028Z   24065.02175748 -.00005905  00000-0 -48703-3 0  9999,2 55764  69.9977 276.9479 0002761 275.7061  84.3784 14.98368832 56483,6950.073,96.105,573.857,570.019,0.0
55764.0,STARLINK-5499,PAYLOAD,2024-03-05 13:20:25,14.98327155,0.0002523,69.9998,275.6,259.357,100.7305,1.852e-05,1.28e-06,0.0,0 STARLINK-5499,1 55764U 23028Z   24065.55585197  .00000128  00000-0  18520-4 0  9995,2 55764  69.9998 275.6000 0002523 259.3570 100.7305 14.98327155 56565,6950.202,96.107,573.82,570.313,0.0
55764.0,STARLINK-5499,PAYLOAD,2024-03-05 19:44:58,14.98328148,0.0002592,69.9986,274.9278,260.4493,99.6373,-0.00012156,-1.543e-05,0.0,0 STARLINK-5499,1 55764U 23028Z   24065.82289498 -.00001543  00000-0 -12156-3 0  9992,2 55764  69.9986 274.9278 0002592 260.4493  99.6373 14.98328148 56603,6950.199,96.107,573.865,570.262,0.0
55764.0,STARLINK-5499,PAYLOAD,2024-03-06 13:22:26,14.98330066,0.0002999,69.998,273.0761,268.4596,91.622,-5.5222e-05,-7.52e-06,0.0,0 STARLINK-5499,1 55764U 23028Z   24066.55725337 -.00000752  00000-0 -55222-4 0  9993,2 55764  69.9980 273.0761 0002999 268.4596  91.6220 14.98330066 56714,6950.193,96.107,574.142,569.973,0.0
55764.0,STARLINK-5499,PAYLOAD,2024-03-06 19:46:58,14.98330099,0.0002945,69.9981,272.4027,263.2038,96.8786,-3.931e-05,-5.62e-06,0.0,0 STARLINK-5499,1 55764U 23028Z   24066.82429263 -.00000562  00000-0 -39310-4 0  9991,2 55764  69.9981 272.4027 0002945 263.2038  96.8786 14.98330099 56752,6950.193,96.107,574.104,570.011,0.0
55764.0,STARLINK-5499,PAYLOAD,2024-03-07 15:00:35,14.9832572,0.0003124,69.9976,270.3823,269.1439,90.9362,0.00010348,1.142e-05,0.0,0 STARLINK-5499,1 55764U 23028Z   24067.62541239  .00001142  00000-0  10348-3 0  9990,2 55764  69.9976 270.3823 0003124 269.1439  90.9362 14.98325720 56870,6950.206,96.107,574.242,569.9,0.0
55764.0,STARLINK-5499,PAYLOAD,2024-03-08 11:50:20,14.98332687,0.0003159,69.9975,268.1935,269.0418,91.0379,5.3212e-05,5.42e-06,0.0,0 STARLINK-5499,1 55764U 23028Z   24068.49329016  .00000542  00000-0  53212-4 0  9994,2 55764  69.9975 268.1935 0003159 269.0418  91.0379 14.98332687 57008,6950.185,96.107,574.245,569.854,0.0
55764.0,STARLINK-5499,PAYLOAD,2024-03-08 13:26:28,14.98332377,0.0003156,69.9975,268.0253,269.1607,90.919,4.8928e-05,4.91e-06,0.0,0 STARLINK-5499,1 55764U 23028Z   24068.56005035  .00000491  00000-0  48928-4 0  9995,2 55764  69.9975 268.0253 0003156 269.1607  90.9190 14.98332377 57014,6950.186,96.107,574.244,569.857,0.0
55764.0,STARLINK-5499,PAYLOAD,2024-03-08 19:51:00,14.98333924,0.0003156,69.9976,267.352,269.3688,90.7109,6.2207e-05,6.49e-06,0.0,0 STARLINK-5499,1 55764U 23028Z   24068.82708845  .00000649  00000-0  62207-4 0  9994,2 55764  69.9976 267.3520 0003156 269.3688  90.7109 14.98333924 57056,6950.181,96.107,574.239,569.852,0.0
55764.0,STARLINK-5499,PAYLOAD,2024-03-09 07:03:56,14.98333162,0.0003124,69.9977,266.1734,269.566,90.5141,4.3641e-05,4.28e-06,0.0,0 STARLINK-5499,1 55764U 23028Z   24069.29440831  .00000428  00000-0  43641-4 0  9990,2 55764  69.9977 266.1734 0003124 269.5660  90.5141 14.98333162 57124,6950.183,96.107,574.219,569.877,0.0
55764.0,STARLINK-5499,PAYLOAD,2024-03-09 19:53:01,14.98331296,0.0003085,69.9979,264.8269,269.8479,90.2326,-1.0496e-06,-1.06e-06,0.0,0 STARLINK-5499,1 55764U 23028Z   24069.82848970 -.00000106  00000-0 -10496-5 0  9993,2 55764  69.9979 264.8269 0003085 269.8479  90.2326 14.98331296 57208,6950.189,96.107,574.198,569.91,0.0
55764.0,STARLINK-5499,PAYLOAD,2024-03-09 23:05:17,14.98331584,0.0003073,69.9979,264.4901,269.9527,90.128,3.075e-06,-5.6e-07,0.0,0 STARLINK-5499,1 55764U 23028Z   24069.96200925 -.00000056  00000-0  30750-5 0  9998,2 55764  69.9979 264.4901 0003073 269.9527  90.1280 14.98331584 57229,6950.188,96.107,574.189,569.917,0.0
55764.0,STARLINK-5499,PAYLOAD,2024-03-10 19:55:02,14.98358113,0.0003329,69.9998,262.2999,272.6033,87.4745,-0.00075069,-9.045e-05,0.0,0 STARLINK-5499,1 55764U 23028Z   24070.82988864 -.00009045  00000-0 -75069-3 0  9998,2 55764  69.9998 262.2999 0003329 272.6033  87.4745 14.98358113 57356,6950.106,96.105,574.285,569.657,0.0
55764.0,STARLINK-5499,PAYLOAD,2024-03-10 21:31:09,14.98366061,0.0003425,69.9999,262.1317,272.0403,88.0364,-0.00065183,-7.869e-05,0.0,0 STARLINK-5499,1 55764U 23028Z   24070.89664044 -.00007869  00000-0 -65183-3 0  9994,2 55764  69.9999 262.1317 0003425 272.0403  88.0364 14.98366061 57368,6950.081,96.105,574.327,569.566,0.0
55764.0,STARLINK-5499,PAYLOAD,2024-03-10 23:07:17,14.98366596,0.000342,69.9998,261.9634,272.6097,87.4671,-0.00061364,-7.414e-05,0.0,0 STARLINK-5499,1 55764U 23028Z   24070.96339820 -.00007414  00000-0 -61364-3 0  9996,2 55764  69.9998 261.9634 0003420 272.6097  87.4671 14.98366596 57374,6950.08,96.105,574.322,569.568,0.0
55764.0,STARLINK-5499,PAYLOAD,2024-03-11 05:31:50,14.98319602,0.0004825,69.9997,261.2908,276.2567,83.8042,0.00021679,2.494e-05,0.0,0 STARLINK-5499,1 55764U 23028Z   24071.23044944  .00002494  00000-0  21679-3 0  9993,2 55764  69.9997 261.2908 0004825 276.2567  83.8042 14.98319602 57415,6950.225,96.108,575.444,568.737,0.0
55764.0,STARLINK-5499,PAYLOAD,2024-03-12 11:58:23,14.98330609,0.0002991,69.9998,258.0935,268.9635,91.1182,3.1616e-05,2.84e-06,0.0,0 STARLINK-5499,1 55764U 23028Z   24072.49888710  .00000284  00000-0  31616-4 0  9997,2 55764  69.9998 258.0935 0002991 268.9635  91.1182 14.98330609 57604,6950.191,96.107,574.135,569.977,0.0
55764.0,STARLINK-5499,PAYLOAD,2024-03-13 12:00:24,14.98330178,0.0002918,69.9978,255.5681,269.1638,90.9186,1.5268e-05,8.9e-07,0.0,0 STARLINK-5499,1 55764U 23028Z   24073.50028739  .00000089  00000-0  15268-4 0  9995,2 55764  69.9978 255.5681 0002918 269.1638  90.9186 14.98330178 57755,6950.192,96.107,574.085,570.029,0.0
55764.0,STARLINK-5499,PAYLOAD,2024-03-13 21:37:13,14.98329302,0.0003009,69.9988,254.5579,268.3042,91.7773,-3.6059e-06,-1.36e-06,0.0,0 STARLINK-5499,1 55764U 23028Z   24073.90084821 -.00000136  00000-0 -36059-5 0  9990,2 55764  69.9988 254.5579 0003009 268.3042  91.7773 14.98329302 57818,6950.195,96.107,574.151,569.969,0.0
